{
"type": "FeatureCollection",
"name": "existing_grid",
"crs": { "type": "name", "properties": { "name": "urn:ogc:def:crs:OGC:1.3:CRS84" } },
"features": [
{ "type": "Feature", "properties": { "VOLTAGE_KV": 220, "FROM_NM": "CAPANDA", "TO_NM": "CAMBAMBE", "STATUS": "Under Construction" }, "geometry": { "type": "MultiLineString", "coordinates": [ [ [ 14.485790560060295, -9.747817908418185 ], [ 15.460922959585361, -9.790197125386335 ] ], [ [ 15.460922959585361, -9.790197125386335 ], [ 15.465648904921409, -9.790402514790749 ] ] ] } },
{ "type": "Feature", "properties": { "VOLTAGE_KV": 220, "FROM_NM": "CAPANDA", "TO_NM": "CACUSO", "STATUS": "Under Construction" }, "geometry": { "type": "LineString", "coordinates": [ [ 15.467190742492718, -9.795468330383272 ], [ 15.75, -9.41666698455812 ] ] } },
{ "type": "Feature", "properties": { "VOLTAGE_KV": 220, "FROM_NM": "CAMBAMBE", "TO_NM": "LUANDA", "STATUS": "Existing" }, "geometry": { "type": "MultiLineString", "coordinates": [ [ [ 13.324810214617017, -8.90459826540102 ], [ 13.234444618225133, -8.838333129882777 ] ], [ [ 14.480853080749554, -9.752325057983398 ], [ 13.324810214617017, -8.90459826540102 ] ] ] } },
{ "type": "Feature", "properties": { "VOLTAGE_KV": 220, "FROM_NM": "CAMBAMBE", "TO_NM": "VIANA", "STATUS": "Existing" }, "geometry": { "type": "LineString", "coordinates": [ [ 14.480853080749554, -9.752325057983398 ], [ 13.383330345153816, -8.899999618530252 ] ] } },
{ "type": "Feature", "properties": { "VOLTAGE_KV": 220, "FROM_NM": "LUANDA", "TO_NM": "VIANA", "STATUS": "Existing" }, "geometry": { "type": "LineString", "coordinates": [ [ 13.234444618225133, -8.838333129882777 ], [ 13.383330345153816, -8.899999618530252 ] ] } },
{ "type": "Feature", "properties": { "VOLTAGE_KV": 60, "FROM_NM": "VIANA", "TO_NM": "BELAS", "STATUS": "Existing" }, "geometry": { "type": "MultiLineString", "coordinates": [ [ [ 13.383330345153816, -8.899999618530252 ], [ 13.324810214617017, -8.90459826540102 ] ], [ [ 13.324810214617017, -8.90459826540102 ], [ 13.164166450500531, -8.917222023010218 ] ] ] } },
{ "type": "Feature", "properties": { "VOLTAGE_KV": 60, "FROM_NM": "LUANDA", "TO_NM": "KIFANGONDO", "STATUS": "Existing" }, "geometry": { "type": "LineString", "coordinates": [ [ 13.234444618225133, -8.838333129882777 ], [ 13.42694473266603, -8.760277748107903 ] ] } },
{ "type": "Feature", "properties": { "VOLTAGE_KV": 220, "FROM_NM": "CAMBAMBE", "TO_NM": "GABELA", "STATUS": "Existing" }, "geometry": { "type": "LineString", "coordinates": [ [ 14.480853080749554, -9.752325057983398 ], [ 14.366666793823278, -10.850000381469727 ] ] } },
{ "type": "Feature", "properties": { "VOLTAGE_KV": 220, "FROM_NM": "CAMBAMBE", "TO_NM": "NDALATANDO", "STATUS": "Existing" }, "geometry": { "type": "MultiLineString", "coordinates": [ [ [ 14.861717542633585, -9.357031411645252 ], [ 14.916666984558134, -9.300000190734892 ] ], [ [ 14.480853080749554, -9.752325057983398 ], [ 14.861717542633585, -9.357031411645252 ] ] ] } },
{ "type": "Feature", "properties": { "VOLTAGE_KV": 100, "FROM_NM": "NDALATANDO", "TO_NM": "CACUSO", "STATUS": "Existing" }, "geometry": { "type": "LineString", "coordinates": [ [ 14.916666984558134, -9.300000190734892 ], [ 15.75, -9.41666698455812 ] ] } },
{ "type": "Feature", "properties": { "VOLTAGE_KV": 100, "FROM_NM": "CACUSO", "TO_NM": "MALANJE", "STATUS": "Existing" }, "geometry": { "type": "LineString", "coordinates": [ [ 15.75, -9.41666698455812 ], [ 16.345277786254847, -9.544722557067864 ] ] } },
{ "type": "Feature", "properties": { "VOLTAGE_KV": 60, "FROM_NM": "MABUBAS", "TO_NM": "LUANDA", "STATUS": "Existing" }, "geometry": { "type": "LineString", "coordinates": [ [ 13.716667175292969, -8.550000190734636 ], [ 13.420345184235581, -8.747737215873665 ], [ 13.234444618225268, -8.838333129882812 ] ] } },
{ "type": "Feature", "properties": { "VOLTAGE_KV": 60, "FROM_NM": "MABUBAS", "TO_NM": "KIFANGONDO", "STATUS": "Existing" }, "geometry": { "type": "LineString", "coordinates": [ [ 13.716667175292983, -8.550000190734863 ], [ 13.42694473266603, -8.760277748107903 ] ] } },
{ "type": "Feature", "properties": { "VOLTAGE_KV": 60, "FROM_NM": "MABUBAS", "TO_NM": "UCUA", "STATUS": "Existing" }, "geometry": { "type": "MultiLineString", "coordinates": [ [ [ 13.716667175292983, -8.550000190734863 ], [ 13.837037090823621, -8.576748919132093 ] ], [ [ 13.837037090823621, -8.576748919132093 ], [ 14.166666984558105, -8.649999618530302 ] ] ] } },
{ "type": "Feature", "properties": { "VOLTAGE_KV": 60, "FROM_NM": "UCUA", "TO_NM": "PIRI", "STATUS": "Existing" }, "geometry": { "type": "LineString", "coordinates": [ [ 14.166666984558105, -8.649999618530302 ], [ 14.416666984558141, -8.516666412353487 ] ] } },
{ "type": "Feature", "properties": { "VOLTAGE_KV": 60, "FROM_NM": "PIRI", "TO_NM": "QUIBAXE", "STATUS": "Existing" }, "geometry": { "type": "LineString", "coordinates": [ [ 14.416666984558141, -8.516666412353487 ], [ 14.600000381469734, -8.5 ] ] } },
{ "type": "Feature", "properties": { "VOLTAGE_KV": 60, "FROM_NM": "GABELA", "TO_NM": "SUMBE", "STATUS": "Existing" }, "geometry": { "type": "LineString", "coordinates": [ [ 14.366666793823278, -10.850000381469727 ], [ 13.836328918369965, -11.197432265007109 ] ] } },
{ "type": "Feature", "properties": { "VOLTAGE_KV": 60, "FROM_NM": "GABELA", "TO_NM": "CACHOEIRAS", "STATUS": "Existing" }, "geometry": { "type": "LineString", "coordinates": [ [ 14.366666793823278, -10.850000381469727 ], [ 14.066699981689496, -11.0 ] ] } },
{ "type": "Feature", "properties": { "VOLTAGE_KV": 60, "FROM_NM": "CACHOEIRAS", "TO_NM": "SUMBE", "STATUS": "Existing" }, "geometry": { "type": "LineString", "coordinates": [ [ 14.066699981689496, -11.0 ], [ 13.836328918369965, -11.197432265007109 ] ] } },
{ "type": "Feature", "properties": { "VOLTAGE_KV": 60, "FROM_NM": "CACHOEIRAS", "TO_NM": "PORTOAMBOIM", "STATUS": "Existing" }, "geometry": { "type": "LineString", "coordinates": [ [ 14.066699981689496, -11.0 ], [ 13.75, -10.733333587646499 ] ] } },
{ "type": "Feature", "properties": { "VOLTAGE_KV": 150, "FROM_NM": "BIOPIO", "TO_NM": "LOBITO", "STATUS": "Existing" }, "geometry": { "type": "LineString", "coordinates": [ [ 13.733333587646477, -12.466667175293008 ], [ 13.56999969482424, -12.369999885559043 ] ] } },
{ "type": "Feature", "properties": { "VOLTAGE_KV": 150, "FROM_NM": "LOBITO", "TO_NM": "CATUMBELA", "STATUS": "Existing" }, "geometry": { "type": "LineString", "coordinates": [ [ 13.56999969482424, -12.369999885559043 ], [ 13.544400215148976, -12.433600425720211 ] ] } },
{ "type": "Feature", "properties": { "VOLTAGE_KV": 150, "FROM_NM": "BENGUELA", "TO_NM": "CAVACO", "STATUS": "Existing" }, "geometry": { "type": "LineString", "coordinates": [ [ 13.410499572753885, -12.566670417785627 ], [ 13.438699722290032, -12.557600021362344 ] ] } },
{ "type": "Feature", "properties": { "VOLTAGE_KV": 150, "FROM_NM": "CATUMBELA", "TO_NM": "BENGUELA", "STATUS": "Existing" }, "geometry": { "type": "LineString", "coordinates": [ [ 13.544400215148926, -12.433600425719987 ], [ 13.4720431762558, -12.516619317166427 ], [ 13.410499572753849, -12.566670417785417 ] ] } },
{ "type": "Feature", "properties": { "VOLTAGE_KV": 60, "FROM_NM": "BIOPIO", "TO_NM": "LOMAUM", "STATUS": "Existing" }, "geometry": { "type": "LineString", "coordinates": [ [ 13.733333587646477, -12.466667175293008 ], [ 14.383333206176772, -12.716667175292958 ] ] } },
{ "type": "Feature", "properties": { "VOLTAGE_KV": 60, "FROM_NM": "LOMAUM", "TO_NM": "ALTOCATUMBELA", "STATUS": "Existing" }, "geometry": { "type": "LineString", "coordinates": [ [ 14.383333206176772, -12.716667175292958 ], [ 14.75, -12.949999809265119 ] ] } },
{ "type": "Feature", "properties": { "VOLTAGE_KV": 60, "FROM_NM": "ALTOCATUMBELA", "TO_NM": "HUAMBO", "STATUS": "Existing" }, "geometry": { "type": "MultiLineString", "coordinates": [ [ [ 15.43107228315867, -12.820596361254296 ], [ 15.75, -12.760000228881815 ] ], [ [ 14.75, -12.949999809265119 ], [ 15.43107228315867, -12.820596361254296 ] ] ] } },
{ "type": "Feature", "properties": { "VOLTAGE_KV": 60, "FROM_NM": "ALTOCATUMBELA", "TO_NM": "CUBAL", "STATUS": "Existing" }, "geometry": { "type": "LineString", "coordinates": [ [ 14.75, -12.949999809265119 ], [ 14.033332824706996, -12.44999980926513 ] ] } },
{ "type": "Feature", "properties": { "VOLTAGE_KV": 60, "FROM_NM": "HUAMBO", "TO_NM": "KATCHIUNGO", "STATUS": "Existing" }, "geometry": { "type": "LineString", "coordinates": [ [ 15.75, -12.760000228881815 ], [ 16.233333587646513, -12.566666603088358 ] ] } },
{ "type": "Feature", "properties": { "VOLTAGE_KV": 60, "FROM_NM": "KATCHIUNGO", "TO_NM": "CHINGUAR", "STATUS": "Existing" }, "geometry": { "type": "LineString", "coordinates": [ [ 16.233333587646513, -12.566666603088358 ], [ 16.333333969116246, -12.550000190734863 ] ] } },
{ "type": "Feature", "properties": { "VOLTAGE_KV": 150, "FROM_NM": "MATALA", "TO_NM": "LUBANGO", "STATUS": "Existing" }, "geometry": { "type": "LineString", "coordinates": [ [ 15.033332824707067, -14.733333587646499 ], [ 13.5, -14.916669845581062 ] ] } },
{ "type": "Feature", "properties": { "VOLTAGE_KV": 150, "FROM_NM": "MATALA", "TO_NM": "QUIPUNGO", "STATUS": "Existing" }, "geometry": { "type": "LineString", "coordinates": [ [ 15.033332824707067, -14.733333587646499 ], [ 14.550000190734863, -14.816666603088354 ] ] } },
{ "type": "Feature", "properties": { "VOLTAGE_KV": 60, "FROM_NM": "MATALA", "TO_NM": "JAMBA", "STATUS": "Existing" }, "geometry": { "type": "MultiLineString", "coordinates": [ [ [ 15.749216970297603, -14.697539243822884 ], [ 16.033332824707045, -14.683333396911632 ] ], [ [ 15.033332824707067, -14.733333587646499 ], [ 15.749216970297603, -14.697539243822884 ] ] ] } },
{ "type": "Feature", "properties": { "VOLTAGE_KV": 60, "FROM_NM": "JAMBA", "TO_NM": "CHAMUTETE", "STATUS": "Existing" }, "geometry": { "type": "LineString", "coordinates": [ [ 16.033332824707045, -14.683333396911632 ], [ 16.06666755676271, -15.25 ] ] } },
{ "type": "Feature", "properties": { "VOLTAGE_KV": 60, "FROM_NM": "LUBANGO", "TO_NM": "NAMIBE", "STATUS": "Existing" }, "geometry": { "type": "LineString", "coordinates": [ [ 13.5, -14.916669845581062 ], [ 12.152222633361859, -15.196110725402786 ] ] } },
{ "type": "Feature", "properties": { "VOLTAGE_KV": 60, "FROM_NM": "NAMIBE", "TO_NM": "TOMBUA", "STATUS": "Existing" }, "geometry": { "type": "LineString", "coordinates": [ [ 12.152222633361816, -15.196110725402832 ], [ 12.019141631578401, -15.612885576703267 ], [ 11.907648411332376, -15.785590761005933 ], [ 11.850000381469727, -15.800000190734636 ] ] } },
{ "type": "Feature", "properties": { "VOLTAGE_KV": 60, "FROM_NM": "NAMIBE", "TO_NM": "SACOMAR", "STATUS": "Existing" }, "geometry": { "type": "LineString", "coordinates": [ [ 12.152222633361816, -15.196110725402832 ], [ 12.161691848645829, -15.170619288909473 ], [ 12.153611183166447, -15.126667022704851 ] ] } },
{ "type": "Feature", "properties": { "VOLTAGE_KV": 60, "FROM_NM": "MALONGO", "TO_NM": "LANDANA", "STATUS": "Existing" }, "geometry": { "type": "LineString", "coordinates": [ [ 12.199999809265137, -5.550000190734636 ], [ 12.25093223737678, -5.546557540525471 ], [ 12.223510875122336, -5.348731998546984 ], [ 12.133333206176871, -5.233333110809326 ] ] } },
{ "type": "Feature", "properties": { "VOLTAGE_KV": 30, "FROM_NM": "CAMACUPA", "TO_NM": "KUITO", "STATUS": "Existing" }, "geometry": { "type": "LineString", "coordinates": [ [ 17.483333587646527, -12.016666412353501 ], [ 16.93333244323729, -12.383333206176768 ] ] } },
{ "type": "Feature", "properties": { "VOLTAGE_KV": 60, "FROM_NM": "CHITATO", "TO_NM": "CAMBULO", "STATUS": "Existing" }, "geometry": { "type": "LineString", "coordinates": [ [ 20.816667556762745, -7.349999904632561 ], [ 21.25, -7.75 ] ] } },
{ "type": "Feature", "properties": { "VOLTAGE_KV": 60, "FROM_NM": "CAMBULO", "TO_NM": "LUCAPA", "STATUS": "Existing" }, "geometry": { "type": "LineString", "coordinates": [ [ 21.25, -7.75 ], [ 20.75, -8.416666984558141 ] ] } },
{ "type": "Feature", "properties": { "VOLTAGE_KV": 400, "FROM_NM": "Inga 3", "TO_NM": "Capanda", "STATUS": "Under Study" }, "geometry": { "type": "MultiLineString", "coordinates": [ [ [ 13.63102468839616, -5.876114443818459 ], [ 13.837037090823621, -8.576748919132093 ] ], [ [ 13.837037090823621, -8.576748919132093 ], [ 13.840229420595435, -8.618597447360443 ], [ 14.861717542633585, -9.357031411645252 ] ], [ [ 14.861717542633585, -9.357031411645252 ], [ 15.460922959585361, -9.790197125386335 ] ], [ [ 15.460922959585361, -9.790197125386335 ], [ 15.466699118718935, -9.794372711959817 ], [ 15.466677659206546, -9.795457848239941 ] ] ] } },
{ "type": "Feature", "properties": { "VOLTAGE_KV": 400, "FROM_NM": "Capanda", "TO_NM": "Auas", "STATUS": "Under Study" }, "geometry": { "type": "MultiLineString", "coordinates": [ [ [ 15.466677659206546, -9.795457848239941 ], [ 15.409383378305506, -12.692639374259148 ], [ 15.43107228315867, -12.820596361254296 ] ], [ [ 15.43107228315867, -12.820596361254296 ], [ 15.749216970297603, -14.697539243822884 ] ], [ [ 15.749216970297603, -14.697539243822884 ], [ 16.206115169349509, -17.393079535509411 ] ] ] } },
{ "type": "Feature", "properties": { "VOLTAGE_KV": 400, "FROM_NM": "Capanda", "TO_NM": "Auas", "STATUS": "Under Study" }, "geometry": { "type": "LineString", "coordinates": [ [ 16.206115169349509, -17.393079535509411 ], [ 16.206155845772983, -17.393319512245228 ] ] } }
]
}
